NORAD_CAT_ID,OBJECT_NAME,OBJECT_TYPE,EPOCH,MEAN_MOTION,ECCENTRICITY,INCLINATION,RA_OF_ASC_NODE,ARG_OF_PERICENTER,MEAN_ANOMALY,BSTAR,MEAN_MOTION_DOT,MEAN_MOTION_DDOT,TLE_LINE0,TLE_LINE1,TLE_LINE2,SEMIMAJOR_AXIS,PERIOD,APOGEE,PERIGEE,DECAYED
52615.0,STARLINK-4011,PAYLOAD,2023-04-23 13:52:30,15.0883921,0.0001196,53.2167,322.7452,67.767,292.3449,0.00014397,2.004e-05,0.0,0 STARLINK-4011,1 52615U 22052T   23113.57813226  .00002004  00000-0  14397-3 0  9997,2 52615  53.2167 322.7452 0001196  67.7670 292.3449 15.08839210 52096,6917.883,95.438,540.575,538.92,0.0
52615.0,STARLINK-4011,PAYLOAD,2023-04-23 23:24:49,15.08849156,0.0001358,53.2156,320.9629,56.0513,304.0608,0.00033436,5.039e-05,0.0,0 STARLINK-4011,1 52615U 22052T   23113.97556997  .00005039  00000-0  33436-3 0  9996,2 52615  53.2156 320.9629 0001358  56.0513 304.0608 15.08849156 52534,6917.852,95.437,540.657,538.778,0.0
52615.0,STARLINK-4011,PAYLOAD,2023-04-24 16:54:02,15.08880501,0.0001148,53.2161,317.689,64.0782,296.0329,0.0009606,0.0001505,0.0,0 STARLINK-4011,1 52615U 22052T   23114.70419586  .00015050  00000-0  96060-3 0  9996,2 52615  53.2161 317.6890 0001148  64.0782 296.0329 15.08880501 52648,6917.757,95.435,540.416,538.827,0.0
52615.0,STARLINK-4011,PAYLOAD,2023-04-25 13:34:04,15.08805677,0.0001599,53.2198,313.8232,115.6111,244.5046,-0.0011567,-0.00018632,0.0,0 STARLINK-4011,1 52615U 22052T   23115.56532908 -.00018632  00000-0 -11567-2 0  9994,2 52615  53.2198 313.8232 0001599 115.6111 244.5046 15.08805677 52392,6917.985,95.44,540.956,538.744,0.0
52615.0,STARLINK-4011,PAYLOAD,2023-04-26 00:41:48,15.08782653,9.42e-05,53.2174,311.741,116.5043,243.6046,-0.00087363,-0.00014142,0.0,0 STARLINK-4011,1 52615U 22052T   23116.02903161 -.00014142  00000-0 -87363-3 0  9999,2 52615  53.2174 311.7410 0000942 116.5043 243.6046 15.08782653 52844,6918.056,95.441,540.572,539.269,0.0
52615.0,STARLINK-4011,PAYLOAD,2023-04-26 05:27:57,15.08806779,0.0001004,53.2149,310.8495,77.2758,282.8346,0.00021857,3.189e-05,0.0,0 STARLINK-4011,1 52615U 22052T   23116.22775450  .00003189  00000-0  21857-3 0  9992,2 52615  53.2149 310.8495 0001004  77.2758 282.8346 15.08806779 52490,6917.982,95.44,540.541,539.152,0.0
52615.0,STARLINK-4011,PAYLOAD,2023-04-26 19:46:25,15.08838287,9.95e-05,53.2169,308.1747,120.8001,239.3089,0.00075243,0.00011707,0.0,0 STARLINK-4011,1 52615U 22052T   23116.82390780  .00011707  00000-0  75243-3 0  9990,2 52615  53.2169 308.1747 0000995 120.8001 239.3089 15.08838287 52586,6917.886,95.438,540.439,539.062,0.0
52615.0,STARLINK-4011,PAYLOAD,2023-04-27 13:15:40,15.08850565,0.000128,53.2159,304.9034,128.8561,231.2545,0.000734,0.00011416,0.0,0 STARLINK-4011,1 52615U 22052T   23117.55254832  .00011416  00000-0  73400-3 0  9998,2 52615  53.2159 304.9034 0001280 128.8561 231.2545 15.08850565 52698,6917.848,95.437,540.599,538.828,0.0
52615.0,STARLINK-4011,PAYLOAD,2023-04-27 22:47:58,15.08855048,9.11e-05,53.2161,303.1192,132.1322,227.9748,0.00061499,9.517e-05,0.0,0 STARLINK-4011,1 52615U 22052T   23117.94998321  .00009517  00000-0  61499-3 0  9993,2 52615  53.2161 303.1192 0000911 132.1322 227.9748 15.08855048 53138,6917.834,95.437,540.33,539.069,0.0
52615.0,STARLINK-4011,PAYLOAD,2023-04-28 21:03:21,15.08847833,9.52e-05,53.218,298.9581,147.9022,212.2028,-9.8911e-05,-1.862e-05,0.0,0 STARLINK-4011,1 52615U 22052T   23118.87733542 -.00001862  00000-0 -98911-4 0  9995,2 52615  53.2180 298.9581 0000952 147.9022 212.2028 15.08847833 53274,6917.856,95.437,540.38,539.063,0.0
52615.0,STARLINK-4011,PAYLOAD,2023-04-29 05:00:18,15.08836532,0.0001129,53.2111,297.4701,101.2653,258.8466,0.00017531,2.503e-05,0.0,0 STARLINK-4011,1 52615U 22052T   23119.20854440  .00002503  00000-0  17531-3 0  9993,2 52615  53.2111 297.4701 0001129 101.2653 258.8466 15.08836532 53328,6917.891,95.438,540.537,538.975,0.0
52615.0,STARLINK-4011,PAYLOAD,2023-04-30 11:12:37,15.08839371,8.98e-05,53.2171,291.8158,115.1341,244.9744,4.1312e-07,-2.81e-06,0.0,0 STARLINK-4011,1 52615U 22052T   23120.46709900 -.00000281  00000-0  41312-6 0  9992,2 52615  53.2171 291.8158 0000898 115.1341 244.9744 15.08839371 53136,6917.882,95.438,540.369,539.126,0.0
52615.0,STARLINK-4011,PAYLOAD,2023-04-30 17:34:09,15.08841386,7.95e-05,53.2171,290.6287,101.0433,259.0648,9.4621e-05,1.219e-05,0.0,0 STARLINK-4011,1 52615U 22052T   23120.73205798  .00001219  00000-0  94621-4 0  9998,2 52615  53.2171 290.6287 0000795 101.0433 259.0648 15.08841386 53553,6917.876,95.437,540.291,539.191,0.0
52615.0,STARLINK-4011,PAYLOAD,2023-04-30 22:20:18,15.08846449,7.24e-05,53.217,289.7356,96.19,263.9175,0.00013115,1.801e-05,0.0,0 STARLINK-4011,1 52615U 22052T   23120.93077349  .00001801  00000-0  13115-3 0  9994,2 52615  53.2170 289.7356 0000724  96.1900 263.9175 15.08846449 53209,6917.861,95.437,540.227,539.225,0.0
52615.0,STARLINK-4011,PAYLOAD,2023-05-01 17:24:57,15.08840061,8.12e-05,53.218,286.1667,91.0477,269.0608,-1.811e-05,-5.76e-06,0.0,0 STARLINK-4011,1 52615U 22052T   23121.72566208 -.00000576  00000-0 -18110-4 0  9990,2 52615  53.2180 286.1667 0000812  91.0477 269.0608 15.08840061 53704,6917.88,95.438,540.307,539.183,0.0
52615.0,STARLINK-4011,PAYLOAD,2023-05-02 14:04:57,15.08846688,7.73e-05,53.2174,282.3031,61.9836,298.1235,7.472e-05,9.02e-06,0.0,0 STARLINK-4011,1 52615U 22052T   23122.58677510  .00000902  00000-0  74720-4 0  9994,2 52615  53.2174 282.3031 0000773  61.9836 298.1235 15.08846688 53453,6917.86,95.437,540.26,539.19,0.0
52615.0,STARLINK-4011,PAYLOAD,2023-05-02 17:15:43,15.08851029,6.33e-05,53.2174,281.7077,67.3027,292.8032,0.00010433,1.374e-05,0.0,0 STARLINK-4011,1 52615U 22052T   23122.71925088  .00001374  00000-0  10433-3 0  9999,2 52615  53.2174 281.7077 0000633  67.3027 292.8032 15.08851029 53858,6917.847,95.437,540.15,539.274,0.0
52615.0,STARLINK-4011,PAYLOAD,2023-05-03 10:44:59,15.088289,7.98e-05,53.2176,278.4373,76.6776,283.4305,2.3429e-05,8.5e-07,0.0,0 STARLINK-4011,1 52615U 22052T   23123.44790820  .00000085  00000-0  23429-4 0  9992,2 52615  53.2176 278.4373 0000798  76.6776 283.4305 15.08828900 53961,6917.914,95.438,540.331,539.227,0.0
52615.0,STARLINK-4011,PAYLOAD,2023-05-03 13:55:45,15.0883128,6.67e-05,53.2173,277.8431,81.9944,278.1124,3.6264e-06,-2.3e-06,0.0,0 STARLINK-4011,1 52615U 22052T   23123.58038780 -.00000230  00000-0  36264-5 0  9992,2 52615  53.2173 277.8431 0000667  81.9944 278.1124 15.08831280 53603,6917.907,95.438,540.233,539.311,0.0
52615.0,STARLINK-4011,PAYLOAD,2023-05-03 20:17:17,15.08835852,7.65e-05,53.2179,276.6518,89.4765,270.6315,5.1234e-05,5.28e-06,0.0,0 STARLINK-4011,1 52615U 22052T   23123.84534500  .00000528  00000-0  51234-4 0  9994,2 52615  53.2179 276.6518 0000765  89.4765 270.6315 15.08835852 53647,6917.893,95.438,540.287,539.229,0.0
52615.0,STARLINK-4011,PAYLOAD,2023-05-04 02:38:49,15.08840535,7.53e-05,53.2164,275.4627,98.9576,261.1501,7.2674e-05,8.69e-06,0.0,0 STARLINK-4011,1 52615U 22052T   23124.11030027  .00000869  00000-0  72674-4 0  9999,2 52615  53.2164 275.4627 0000753  98.9576 261.1501 15.08840535 54064,6917.879,95.438,540.265,539.223,0.0
52615.0,STARLINK-4011,PAYLOAD,2023-05-04 13:46:32,15.08838575,9.91e-05,53.2176,273.3802,95.3978,264.7128,-2.6042e-05,-7.02e-06,0.0,0 STARLINK-4011,1 52615U 22052T   23124.57398313 -.00000702  00000-0 -26042-4 0  9990,2 52615  53.2176 273.3802 0000991  95.3978 264.7128 15.08838575 53750,6917.885,95.438,540.435,539.064,0.0
52615.0,STARLINK-4011,PAYLOAD,2023-05-04 20:08:04,15.08843227,9.79e-05,53.2175,272.1906,103.0436,257.0666,6.2821e-05,7.12e-06,0.0,0 STARLINK-4011,1 52615U 22052T   23124.83894153  .00000712  00000-0  62821-4 0  9996,2 52615  53.2175 272.1906 0000979 103.0436 257.0666 15.08843227 53799,6917.871,95.437,540.413,539.058,0.0
52615.0,STARLINK-4011,PAYLOAD,2023-05-05 10:26:33,15.08834196,9.26e-05,53.2181,269.5142,84.748,275.3618,0.00011289,1.509e-05,0.0,0 STARLINK-4011,1 52615U 22052T   23125.43510876  .00001509  00000-0  11289-3 0  9996,2 52615  53.2181 269.5142 0000926  84.7480 275.3618 15.08834196 54262,6917.898,95.438,540.404,539.123,0.0
52615.0,STARLINK-4011,PAYLOAD,2023-05-05 18:23:28,15.08843678,8.32e-05,53.217,268.03,84.3964,275.7123,0.00022345,3.271e-05,0.0,0 STARLINK-4011,1 52615U 22052T   23125.76630491  .00003271  00000-0  22345-3 0  9991,2 52615  53.2170 268.0300 0000832  84.3964 275.7123 15.08843678 53932,6917.869,95.437,540.31,539.159,0.0
52615.0,STARLINK-4011,PAYLOAD,2023-05-06 13:28:06,15.08844405,6.76e-05,53.216,264.46,70.4168,289.6897,0.00016358,2.317e-05,0.0,0 STARLINK-4011,1 52615U 22052T   23126.56118609  .00002317  00000-0  16358-3 0  9999,2 52615  53.2160 264.4600 0000676  70.4168 289.6897 15.08844405 54057,6917.867,95.437,540.2,539.264,0.0
52615.0,STARLINK-4011,PAYLOAD,2023-05-06 16:38:52,15.08851709,7.99e-05,53.2162,263.8644,70.5999,289.5079,0.00032278,4.855e-05,0.0,0 STARLINK-4011,1 52615U 22052T   23126.69366364  .00004855  00000-0  32278-3 0  9994,2 52615  53.2162 263.8644 0000799  70.5999 289.5079 15.08851709 54459,6917.845,95.437,540.262,539.157,0.0
52615.0,STARLINK-4011,PAYLOAD,2023-05-07 02:11:11,15.08842342,8.86e-05,53.2162,262.0811,78.8516,281.2576,0.00010182,1.333e-05,0.0,0 STARLINK-4011,1 52615U 22052T   23127.09110634  .00001333  00000-0  10182-3 0  9994,2 52615  53.2162 262.0811 0000886  78.8516 281.2576 15.08842342 54510,6917.873,95.437,540.351,539.125,0.0
52615.0,STARLINK-4011,PAYLOAD,2023-05-07 13:18:53,15.08835894,5.63e-05,53.2152,260.0013,88.2893,271.8164,4.1182e-05,3.68e-06,0.0,0 STARLINK-4011,1 52615U 22052T   23127.55478947  .00000368  00000-0  41182-4 0  9991,2 52615  53.2152 260.0013 0000563  88.2893 271.8164 15.08835894 54204,6917.893,95.438,540.147,539.368,0.0
52615.0,STARLINK-4011,PAYLOAD,2023-05-07 16:29:39,15.08838982,8.08e-05,53.2152,259.4037,77.7074,282.4008,3.6858e-05,2.99e-06,0.0,0 STARLINK-4011,1 52615U 22052T   23127.68726846  .00000299  00000-0  36858-4 0  9996,2 52615  53.2152 259.4037 0000808  77.7074 282.4008 15.08838982 54226,6917.884,95.438,540.307,539.19,0.0
